{
    "links": {
        "self": "http://www.neowsapp.com/rest/v1/neo/3825163?api_key=iIulBulltgU6a56xZRHN4H3l9WmuAYTsLGpBGhQ2"
    },
    "id": "3825163",
    "neo_reference_id": "3825163",
    "name": "(2018 LW3)",
    "designation": "2018 LW3",
    "nasa_jpl_url": "http://ssd.jpl.nasa.gov/sbdb.cgi?sstr=3825163",
    "absolute_magnitude_h": 26.0,
    "estimated_diameter": {
        "kilometers": {
            "estimated_diameter_min": 0.0167708462,
            "estimated_diameter_max": 0.0375007522
        },
        "meters": {
            "estimated_diameter_min": 16.7708462163,
            "estimated_diameter_max": 37.5007521798
        },
        "miles": {
            "estimated_diameter_min": 0.0104209175,
            "estimated_diameter_max": 0.0233018799
        },
        "feet": {
            "estimated_diameter_min": 55.0224631002,
            "estimated_diameter_max": 123.0339677816
        }
    },
    "is_potentially_hazardous_asteroid": false,
    "close_approach_data": [
        {
            "close_approach_date": "2013-07-11",
            "close_approach_date_full": "2013-Jul-11 09:13",
            "epoch_date_close_approach": 1373533980000,
            "relative_velocity": {
                "kilometers_per_second": "17.6887390545",
                "kilometers_per_hour": "63679.460596236",
                "miles_per_hour": "39567.9403910334"
            },
            "miss_distance": {
                "astronomical": "0.3214875703",
                "lunar": "125.0586648467",
                "kilometers": "48093855.748355261",
                "miles": "29884136.2162181618"
            },
            "orbiting_body": "Earth"
        },
        {
            "close_approach_date": "2018-06-11",
            "close_approach_date_full": "2018-Jun-11 15:18",
            "epoch_date_close_approach": 1528730280000,
            "relative_velocity": {
                "kilometers_per_second": "9.4138993842",
                "kilometers_per_hour": "33890.0377832804",
                "miles_per_hour": "21057.9515326166"
            },
            "miss_distance": {
                "astronomical": "0.0093653897",
                "lunar": "3.6431365933",
                "kilometers": "1401042.350839939",
                "miles": "870567.3480675982"
            },
            "orbiting_body": "Earth"
        }
    ],
    "orbital_data": {
        "orbit_id": "3",
        "orbit_determination_date": "2018-06-22 06:25:11",
        "first_observation_date": "2018-06-11",
        "last_observation_date": "2018-06-21",
        "data_arc_in_days": 10,
        "observations_used": 26,
        "orbit_uncertainty": "7",
        "minimum_orbit_intersection": ".00870319",
        "jupiter_tisserand_invariant": "3.873",
        "epoch_osculation": "2459000.5",
        "eccentricity": ".4608273109690817",
        "semi_major_axis": "1.835575424508704",
        "inclination": "9.942316109762253",
        "ascending_node_longitude": "81.23607501681306",
        "orbital_period": "908.357442085933",
        "perihelion_distance": ".9896921375514272",
        "perihelion_argument": "152.3378633384101",
        "aphelion_distance": "2.68145871146598",
        "perihelion_time": "2459167.056991917543",
        "mean_anomaly": "293.9901735679919",
        "mean_motion": ".3963197562110611",
        "equinox": "J2000",
        "orbit_class": {
            "orbit_class_type": "APO",
            "orbit_class_description": "Near-Earth asteroid orbits which cross the Earth’s orbit similar to that of 1862 Apollo",
            "orbit_class_range": "a (semi-major axis) > 1.0 AU; q (perihelion) < 1.017 AU"
        }
    },
    "is_sentry_object": false
}